OBJECT C                
1 57582U 23117C   24329.15797956  .00015191  00000+0  69338-3 0  9998
2 57582  97.4703  39.3599 0011032  96.8899 263.3592 15.20645721 71453
